C/2017 D2 (Barros),e,31.2580,330.9498,334.5500,5600,0.0000024,0.99955507,0.0000,07/14.9014/2017,2000,g 11.0,4.0
# From MPC114598
C/2017 D3 (ATLAS),h,04/27.4300/2017,125.5871,186.6874,340.8569,1.002232,4.971780,2000,8.0,4.0
# From MPC110495
P/2017 D4 (PANSTARRS),e,10.5311,264.9376,212.2653,7.561044,0.0474058,0.62830783,79.5006,04/09.0/2021,2000,g 13.0,4.0
# From MPC104794
C/2017 D5 (PANSTARRS),e,131.0457,92.7064,287.6997,114.1875,0.0008077,0.98109982,0.0000,01/09.6494/2017,2000,g 16.0,4.0
# From MPC106346
C/2017 E1 (Borisov),h,04/10.6122/2017,14.5724,142.5640,152.7177,1.003143,0.902997,2000,14.0,4.0
# From MPC109144
C/2017 E2 (Tsuchinshan),e,79.0917,11.6293,89.3477,21.52493,0.0098694,0.89085994,17.6991,04/09.0/2021,2000,g 11.5,4.0
# From MPC115882
C/2017 E3 (PANSTARRS),h,06/07.8405/2017,70.6439,220.7562,334.5109,1.006473,5.938417,2000,6.5,4.0
# From MPC105239
C/2017 E4 (Lovejoy),h,04/23.5965/2017,88.0514,222.9605,87.0645,1.001496,0.490998,2000,17.0,4.0
# From MPC105239
C/2017 E5 (Lemmon),e,122.6700,206.3875,306.9485,400.0870,0.0001232,0.99553142,0.0000,06/10.8894/2016,2000,g 13.0,4.0
# From MPC111769
C/2017 F1 (Lemmon),h,11/29.9150/2017,146.4611,158.7881,64.7461,1.003162,4.496147,2000,10.5,4.0
# From MPC114598
C/2017 F2 (PANSTARRS),h,11/27.0919/2017,42.5286,38.6788,135.0185,1.003245,6.931457,2000,7.5,4.0
# From MPC104794
P/2017 G1 (PANSTARRS),e,4.7750,249.6306,224.5147,7.285458,0.0501209,0.65291600,90.6116,04/09.0/2021,2000,g 13.5,4.0
# From MPC108595
P/2017 G2 (PANSTARRS),e,47.9462,79.7879,105.5426,8.064650,0.0430354,0.64800218,60.1596,04/09.0/2021,2000,g 13.0,4.0
# From MPC109144
C/2017 G3 (PANSTARRS),e,159.0516,279.4744,73.1120,314.9980,0.0001763,0.99178472,0.0000,04/15.9642/2017,2000,g 14.0,4.0
# From MPEC 2021-F20
C/2017 K1 (PANSTARRS),h,03/17.7018/2018,154.0162,225.6773,4.4200,1.002653,7.289576,2000,7.0,4.0
# From MPEC 2021-FB5
C/2017 K2 (PANSTARRS),h,12/19.7754/2022,87.5507,88.2477,236.1862,1.000531,1.797739,2000,1.5,4.0
# From MPC106346
P/2017 K3 (Gasparovic),e,4.2731,354.2810,253.5004,5.582914,0.0747158,0.58033173,105.2662,04/09.0/2021,2000,g 14.5,4.0
# From MPC114598
C/2017 K4 (ATLAS),e,16.6796,298.8717,15.2617,28.56420,0.0064561,0.90714147,7.6600,04/09.0/2021,2000,g 10.0,4.0
# From MPEC 2021-F20
C/2017 K5 (PANSTARRS),h,03/26.6419/2020,82.2345,102.3720,172.0025,1.006187,7.680662,2000,5.0,4.0
# From MPC114599
C/2017 K6 (Jacques),e,57.2440,85.0188,303.7517,1084,0.0000276,0.99815803,0.0000,01/03.4908/2018,2000,g 11.0,4.0
# From MPC110083
C/2017 M3 (PANSTARRS),e,77.5664,7.0222,110.3258,166.8044,0.0004575,0.97208604,0.0000,04/28.1180/2017,2000,g 10.5,4.0
# From MPC118093
C/2017 M4 (ATLAS),h,01/17.9327/2019,105.6485,65.8856,167.6017,1.001282,3.253182,2000,6.0,4.0
# From MPEC 2021-F20
C/2017 M5 (TOTAS),h,06/04.3083/2018,15.8754,216.2845,92.7760,1.005466,5.995277,2000,6.5,4.0
# From MPC114599
C/2017 O1 (ASASSN),e,39.9208,25.7495,20.8386,357.9605,0.0001455,0.99582726,0.0000,10/15.0010/2017,2000,g 11.0,4.0
# From MPC114599
P/2017 P1 (PANSTARRS),e,7.6953,221.3964,122.3501,7.898021,0.0444045,0.31086385,45.4813,04/09.0/2021,2000,g 10.0,4.0
# From MPC114599
C/2017 P2 (PANSTARRS),e,50.0514,165.4741,132.3934,2260,0.0000092,0.99890861,0.0000,12/06.6130/2017,2000,g 10.0,4.0
# From MPC114599
P/2017 R1 (PANSTARRS),e,2.5742,143.6166,178.6162,4.135064,0.1172143,0.19568939,171.0778,04/09.0/2021,2000,g 13.5,4.0
# From MPC108595
C/2017 S2 (PANSTARRS),e,12.6757,62.3872,305.9816,20.56053,0.0105719,0.82435702,13.9344,04/09.0/2021,2000,g 13.0,4.0
# From MPC114599
C/2017 S3 (PANSTARRS),h,08/16.0904/2018,99.1668,171.2383,255.8351,1.000057,0.207780,2000,11.0,4.0
# From MPC114599
P/2017 S5 (ATLAS),e,11.8518,252.3701,99.8776,3.167817,0.1748090,0.31427346,235.9742,04/09.0/2021,2000,g 14.0,4.0
# From MPC109591
C/2017 S6 (Catalina),h,02/26.3437/2018,152.8674,131.0401,134.8345,1.000666,1.545081,2000,12.5,4.0
# From MPC114599
C/2017 S7 (Lemmon),e,124.2279,262.7728,187.5628,1125103,0.0000000,0.99999324,0.0000,05/24.8563/2017,2000,g  7.0,4.0
# From MPC114599
P/2017 S8 (PANSTARRS),e,29.8243,191.5998,254.7588,2.780281,0.2126038,0.39182077,248.3746,04/09.0/2021,2000,g 16.0,4.0
# From MPC107050
P/2017 S9 (PANSTARRS),e,14.1439,146.2230,237.7057,3.153608,0.1759918,0.30522325,238.6050,04/09.0/2021,2000,g 17.0,4.0
# From MPC114600
C/2017 T1 (Heinze),e,96.8485,102.3490,96.9523,17893,0.0000004,0.99996740,0.0000,02/21.1109/2018,2000,g 14.5,4.0
# From MPEC 2021-FB5
C/2017 T2 (PANSTARRS),e,57.2262,64.3771,93.0003,3038,0.0000059,0.99946824,0.0000,05/04.9345/2020,2000,g  5.0,4.0
# From MPC114600
C/2017 T3 (ATLAS),e,88.0888,230.1033,246.8306,1201,0.0000237,0.99931309,0.0000,07/18.8766/2018,2000,g 10.0,4.0
# From MPC115882
P/2017 TW13 (Lemmon),e,44.8501,322.2977,119.9819,7.142897,0.0516289,0.70948146,52.8227,04/09.0/2021,2000,g 15.0,2.0
# From MPC114600
C/2017 U2 (Fuls),e,95.3876,149.7074,147.8053,3160,0.0000055,0.99787734,0.0000,08/28.2124/2017,2000,g  9.0,4.0
# From MPC114600
P/2017 U3 (PANSTARRS),e,15.9170,165.1082,296.8311,4.929656,0.0900490,0.09888810,65.1905,04/09.0/2021,2000,g 11.0,4.0
# From MPC114600
C/2017 U4 (PANSTARRS),h,09/23.2941/2018,158.2149,245.9413,159.0255,1.002171,7.720921,2000,7.0,4.0
# From MPC114600
C/2017 U5 (PANSTARRS),e,18.9749,163.0851,262.0203,16.87576,0.0142170,0.74400939,17.1673,04/09.0/2021,2000,g 12.0,4.0
# From MPEC 2021-F20
C/2017 U7 (PANSTARRS),h,09/14.1058/2019,142.5905,276.2445,326.3102,1.000582,6.423023,2000,8.3,2.0
# From MPC114600
C/2017 W2 (Leonard),e,98.1989,312.8421,169.0223,13.65607,0.0195306,0.71063416,24.5072,04/09.0/2021,2000,g 11.0,4.0
# From MPC114601
P/2017 W3 (Gibbs),e,18.1678,210.2850,327.8119,7.842495,0.0448769,0.50741807,50.9380,04/09.0/2021,2000,g 10.5,4.0
# From MPC115883
C/2017 X1 (PANSTARRS),e,31.3056,251.1304,283.2826,31.30351,0.0056275,0.85083512,5.7898,04/09.0/2021,2000,g 10.0,4.0
# From MPC117069
C/2017 Y1 (PANSTARRS),e,55.2665,307.5303,134.2987,1794,0.0000130,0.99793124,0.0000,08/31.1787/2017,2000,g 11.5,4.0
# From MPEC 2021-FB5
C/2017 Y2 (PANSTARRS),h,11/04.7436/2020,128.4113,65.9944,147.8911,1.000767,4.632193,2000,15.0,4.0
# From MPC111770
P/2017 Y3 (Leonard),e,27.5592,153.8455,67.6056,9.845095,0.0319061,0.87006064,36.8020,04/09.0/2021,2000,g 16.5,4.0
# From MPC114601
C/2018 A1 (PANSTARRS),e,53.6102,336.6550,96.2544,25.09859,0.0078384,0.90382481,9.9274,04/09.0/2021,2000,g 12.5,4.0
# From MPEC 2021-F20
C/2018 A3 (ATLAS),e,139.5412,194.2938,86.3836,453.8599,0.0001019,0.99278311,0.0000,01/12.5129/2019,2000,g  8.5,4.0
# From MPC114601
C/2018 A4 (PANSTARRS),e,3.1484,97.6269,356.0266,12.19914,0.0231319,0.80334759,24.4390,04/09.0/2021,2000,g 14.0,4.0
# From MPC109147
P/2018 A5 (PANSTARRS),e,23.5822,87.8212,359.5564,5.634525,0.0736916,0.52232938,95.3558,04/09.0/2021,2000,g 15.0,4.0
# From MPEC 2021-F20
C/2018 A6 (Gibbs),e,77.0052,340.3756,264.5491,15.29237,0.0164813,0.80257103,10.4644,04/09.0/2021,2000,g  9.0,4.0
# From MPEC 2021-F20
C/2018 B1 (Lemmon),h,03/29.3431/2018,162.4201,133.1908,68.3130,1.000678,5.116928,2000,9.0,4.0
# From MPC114601
P/2018 C1 (Lemmon-Read),e,5.1198,270.3775,235.6953,5.654320,0.0733050,0.53294237,83.4462,04/09.0/2021,2000,g 13.5,4.0
# From MPC114601
C/2018 C2 (Lemmon),h,06/01.6006/2018,34.4599,91.1524,134.1118,1.000688,1.958630,2000,13.0,4.0
# From MPEC 2021-F20
C/2018 DO4 (Lemmon),e,160.4717,251.1943,176.0845,25.73478,0.0075496,0.90638658,4.5279,04/09.0/2021,2000,g 11.0,4.0
# From MPEC 2021-F20
C/2018 E1 (ATLAS),e,72.5156,146.8660,299.3840,53.92633,0.0024889,0.94990979,2.7070,04/09.0/2021,2000,g 10.5,4.0
# From MPC114602
C/2018 E2 (Barros),e,97.7009,67.1925,277.4640,4037,0.0000038,0.99902903,0.0000,12/24.0274/2017,2000,g 10.5,4.0
# From MPC114602
C/2018 EN4 (NEOWISE),e,81.6664,136.1410,35.0102,18.19555,0.0126986,0.92025076,13.1723,04/09.0/2021,2000,g 15.0,4.0
# From MPC114602
C/2018 EF9 (Lemmon),e,84.6341,172.5630,72.6201,539.5233,0.0000786,0.99711242,0.0000,05/22.6978/2018,2000,g 18.0,2.0
# From MPEC 2021-F20
C/2018 F1 (Grauer),e,46.0771,177.2759,71.6318,279.9818,0.0002104,0.98930469,0.0000,12/13.6694/2018,2000,g 11.5,4.0
# From MPC110084
C/2018 F3 (Johnson),p,08/15.2314/2017,105.5348,293.0113,2.483172,173.0311,2000,13.0,4.0
# From MPC119996
C/2018 F4 (PANSTARRS),h,12/04.1299/2019,78.0915,26.5142,263.2310,1.001235,3.440482,2000,11.9,2.0
# From MPC114602
P/2018 H2 (PANSTARRS),e,7.3885,68.3859,119.9632,4.392181,0.1070739,0.54012486,125.5521,04/09.0/2021,2000,g 16.6,2.0
# From MPC114602
C/2018 K1 (Weiland),e,164.1955,260.0511,325.0982,29.99803,0.0059988,0.93725060,6.5877,04/09.0/2021,2000,g 14.9,4.0
# From MPEC 2021-F20
C/2018 KJ3 (Lemmon),e,136.7073,91.6041,217.6714,857.5709,0.0000392,0.99576774,0.0000,09/09.7439/2019,2000,g 12.2,2.0
# From MPC114602
P/2018 L1 (PANSTARRS),e,10.5916,268.6317,17.9921,3.651061,0.1412783,0.48279855,124.0985,04/09.0/2021,2000,g 15.0,4.0
# From MPEC 2021-F20
C/2018 L2 (ATLAS),e,67.3775,243.0232,56.2785,260.3840,0.0002346,0.99342140,0.0000,12/02.6887/2018,2000,g 10.0,4.0
# From MPC114603
P/2018 L4 (PANSTARRS),e,26.6251,145.1537,140.5744,4.941144,0.0897352,0.66009802,88.1333,04/09.0/2021,2000,g 17.5,4.0
# From MPC119996
P/2018 L5 (Leonard),e,2.2081,219.1167,93.8233,3.627920,0.1426322,0.36476329,152.5906,04/09.0/2021,2000,g 14.5,4.0
# From MPC117070
C/2018 M1 (Catalina),e,37.2949,339.4136,14.1693,21.36949,0.0099773,0.93905004,10.0136,04/09.0/2021,2000,g 15.5,4.0
# From MPC112393
C/2018 N1 (NEOWISE),e,159.4433,292.4489,354.6376,354.9102,0.0001474,0.99630835,0.0000,08/01.9690/2018,2000,g 15.5,4.0
# From MPEC 2021-FB5
C/2018 N2 (ASASSN),h,11/10.9763/2019,77.5297,25.2405,24.4063,1.000141,3.124871,2000,6.0,4.0
# From MPC114603
C/2018 O1 (ATLAS),e,154.0371,87.6545,162.5979,27.93322,0.0066761,0.94412959,6.3515,04/09.0/2021,2000,g 17.0,4.0
# From MPC114603
P/2018 P3 (PANSTARRS),e,8.9094,59.1799,305.8799,3.006061,0.1891069,0.41656367,172.4857,04/09.0/2021,2000,g 14.5,4.0
# From MPC114603
P/2018 P4 (PANSTARRS),e,23.1076,353.0716,8.2358,6.672921,0.0571781,0.45047673,50.4850,04/09.0/2021,2000,g 12.0,4.0
# From MPEC 2021-F20
